#aV2013  3 25  0  0  0.00000000     288 DD+AD WGS84 FIT  NGA
## 1733  86400.00000000   300.00000000 56376 0.0000000000000
+   31     1  2  3  4  5  6  7  8  9 10 11 12 13 14 15 16 17
+         18 19 20 21 22 23 24 25 26 28 29 30 31 32  0  0  0
+          0  0  0  0  0  0  0  0  0  0  0  0  0  0  0  0  0
+          0  0  0  0  0  0  0  0  0  0  0  0  0  0  0  0  0
+          0  0  0  0  0  0  0  0  0  0  0  0  0  0  0  0  0
++         2  2  2  2  2  2  2  2  2  2  2  2  2  2  2  2  2
++         2  2  2  2  2  2  2  2  2  2  2  2  2  2  2  0  0
++         0  0  0  0  0  0  0  0  0  0  0  0  0  0  0  0  0
++         0  0  0  0  0  0  0  0  0  0  0  0  0  0  0  0  0
++         0  0  0  0  0  0  0  0  0  0  0  0  0  0  0  0  0
%c cc cc ccc ccc cccc cccc cccc cccc ccccc ccccc ccccc ccccc
%c cc cc ccc ccc cccc cccc cccc cccc ccccc ccccc ccccc ccccc
%f  0.0000000  0.000000000  0.00000000000  0.000000000000000
%f  0.0000000  0.000000000  0.00000000000  0.000000000000000
%i    0    0    0    0      0      0      0      0         0
%i    0    0    0    0      0      0      0      0         0
/*      NGA, ST. LOUIS,MO.                                  
/*   EPHEMERIS COMPUTED FROM  1 DAYS OF DATA
/*   EPOCHA SMOOTHER  
/* CCCCCCCCCCCCCCCCCCCCCCCCCCCCCCCCCCCCCCCCCCCCCCCCCCCCCCCCC
*  2013  3 25 15 55  0.00000000                                                 
P  1 -13607.229364  17403.604320  14671.134088     10.388742                    
V  1   1251.152938 -18772.553583  23475.735792      0.031958                    
P  2  14351.928698   7358.950354 -20971.076232    423.996516                    
V  2  -4752.132110  26674.283807   5541.376825      0.018935                    
P  3 -23876.831647  -7250.136559   8909.020997    185.454960                    
V  3  -8398.727593  -9171.530454 -28138.226257      0.051545                    
P  4   8821.637040  19024.672167 -16414.154408    171.511342                    
V  4  -5954.479198  19764.230816  20333.489165      0.108640                    
P  5  24419.504537   -713.718375 -10621.824418   -389.222553                    
V  5 -11719.719863   7054.565035 -27355.621214     -0.014767                    
P  6 -23058.637971 -12631.905216   5031.878991    300.605982                    
V  6  -3159.608839  -6179.967434 -30199.924064     -0.153015                    
P  7  -5967.020976  25692.416682  -1107.161638    195.223161                    
V  7  -2245.914757  -1949.574162 -32237.278763      0.043090                    
P  8   -657.672604  24387.509875   9833.186620      5.292826                    
V  8  -5356.435854  11427.148251 -29576.026401      0.000947                    
P  9  12945.527471   7848.448499  21259.006950    229.389351                    
V  9  -5474.376443  27731.728071  -6790.473411      0.026659                    
P 10  12256.851674  11753.222510 -20797.894013    -74.523954                    
V 10 -24139.708128   8925.711651  -8898.394693     -0.013729                    
P 11 -14240.280545  11125.580294  18960.041354   -365.893311                    
V 11  -4869.936627 -25002.152605  11049.646194     -0.036669                    
P 12  23211.373608 -11407.881011  -5555.839425    124.788540                    
V 12   7382.768607    -76.329672  31344.507356      0.020592                    
P 13  -4394.222042  15716.068813 -21075.043811    134.768881                    
V 13 -18833.219036 -18505.572928 -10054.773238     -0.035672                    
P 14 -13233.917985 -21402.915636   8917.233560    221.027729                    
V 14   9274.969801   6237.604810  29234.834841      0.000788                    
P 15  18866.487176  -2258.993963  18629.967284   -112.806778                    
V 15  17488.389968  16060.758921 -15483.774082     -0.013891                    
P 16 -24110.208536   -672.906069 -11510.079680   -252.620970                    
V 16  13375.353805  -5656.874221 -27384.776050      0.000044                    
P 17  14422.123286  20974.483905   8210.841102     36.689171                    
V 17  -8949.892547  -5132.915244  29379.271062     -0.039291                    
P 18   3923.032318 -17331.687585  20039.861468    245.617134                    
V 18  23871.624913  -6926.317723 -11232.813187      0.018652                    
P 19 -19909.369509  -2905.698863  17466.216966   -359.353163                    
V 19 -14496.823432 -16845.685162 -18825.399571     -0.031508                    
P 20 -20861.358874  14703.669953  -7395.458111     89.809248                    
V 20  -9908.180359    212.193785  29136.185842      0.017733                    
P 21   2205.602757 -26018.627975   3386.557610   -288.111861                    
V 21   4712.488487  -2924.854561 -31053.290370     -0.021925                    
P 22  -8376.897466 -13955.103562  21188.172793    162.277440                    
V 22  24954.412124  -9227.779161   3682.129453      0.012908                    
P 23 -12509.410506   9233.765691 -21504.332659    101.572135                    
V 23 -20553.992687 -18165.994753   3761.410158     -0.036667                    
P 24  14615.752285 -14098.246191  17091.707426     -3.321588                    
V 24  -1957.182645  21722.551278  19620.301774     -0.007267                    
P 25  14828.956952 -16229.348327 -14873.918671     81.107848                    
V 25  18323.903176  -4725.490279  23580.930131      0.034718                    
P 26  21300.992462  11688.120252  10482.963129    -52.959930                    
V 26   8552.356680  11407.574968 -28038.162835      0.147740                    
P 28   3586.681866  14583.412664  22486.865807    244.088310                    
V 28 -26002.555190   7586.913685   -970.253148      0.034229                    
P 29   3642.161633 -16198.420218 -20685.110551    420.161504                    
V 29  19835.514427  17395.070495 -10057.427128      0.037173                    
P 30 -17168.657866  -6789.905754 -19437.599168   -200.143788                    
V 30  21089.397716 -11385.774781 -14943.358202      0.061612                    
P 31  -9001.145584 -16756.273405 -18238.303929    307.981165                    
V 31   6165.117226 -22798.900355  18005.879582      0.015889                    
P 32 -25321.595893   6990.914965   -453.842906   -545.783570                    
V 32  -1650.780035  -3315.656786  31839.984463     -0.027537                    
EOF
